H1 CPF 01  gfz 2022 06 09 12  6602 terrasarx 
H2 0702601  6201 31698    2022 06 09 12 59 42 2022 06 14 00 00 42   120 1 1  0 0 0
H9
10 0 59742  19422.000000  0   -6544552.263  -1315658.207  -1711421.115
10 0 59742  19542.000000  0   -6740360.414  -1169868.227   -822590.138
10 0 59742  19662.000000  0   -6815687.127  -1001271.482     80708.962
10 0 59742  19782.000000  0   -6768793.774   -814926.909    982585.683
10 0 59742  19902.000000  0   -6600191.552   -616220.432   1867159.735
10 0 59742  20022.000000  0   -6312639.192   -410730.137   2718849.844
10 0 59742  20142.000000  0   -5911095.378   -204087.803   3522656.885
10 0 59742  20262.000000  0   -5402626.276     -1840.392   4264435.122
10 0 59742  20382.000000  0   -4796271.222    190683.952   4931144.770
10 0 59742  20502.000000  0   -4102871.658    368503.056   5511080.820
10 0 59742  20622.000000  0   -3334868.241    527098.200   5994076.104
10 0 59742  20742.000000  0   -2506068.706    662518.358   6371675.428
10 0 59742  20862.000000  0   -1631393.078    771469.500   6637278.045
10 0 59742  20982.000000  0    -726600.088    851388.324   6786247.053
10 0 59742  21102.000000  0     191998.182    900497.958   6815984.070
10 0 59742  21222.000000  0    1107829.549    917845.030   6725971.230
10 0 59742  21342.000000  0    2004359.381    903318.167   6517779.775
10 0 59742  21462.000000  0    2865388.030    857646.997   6195044.577
10 0 59742  21582.000000  0    3675344.341    782381.688   5763405.469
10 0 59742  21702.000000  0    4419570.101    679853.645   5230413.618
10 0 59742  21822.000000  0    5084589.441    553117.464   4605405.938
10 0 59742  21942.000000  0    5658360.993    405875.039   3899348.183
10 0 59742  22062.000000  0    6130506.277    242384.766   3124645.630
10 0 59742  22182.000000  0    6492507.488     67357.019   2294924.824
10 0 59742  22302.000000  0    6737869.975   -114163.602   1424792.187
10 0 59742  22422.000000  0    6862247.619   -296924.334    529572.155
10 0 59742  22542.000000  0    6863525.124   -475595.522   -374970.155
10 0 59742  22662.000000  0    6741855.332   -644905.100  -1272916.182
10 0 59742  22782.000000  0    6499650.058   -799771.931  -2148482.716
10 0 59742  22902.000000  0    6141525.521   -935434.483  -2986306.799
10 0 59742  23022.000000  0    5674204.458  -1047571.884  -3771719.749
10 0 59742  23142.000000  0    5106377.924  -1132414.011  -4491005.281
10 0 59742  23262.000000  0    4448531.243  -1186837.755  -5131636.125
10 0 59742  23382.000000  0    3712739.626  -1208448.408  -5682486.226
10 0 59742  23502.000000  0    2912437.076  -1195644.764  -6134015.122
10 0 59742  23622.000000  0    2062165.272  -1147665.547  -6478421.950
10 0 59742  23742.000000  0    1177307.494  -1064616.481  -6709769.144
10 0 59742  23862.000000  0     273811.999   -947479.703  -6824074.576
10 0 59742  23982.000000  0    -632091.044   -798103.793  -6819372.666
10 0 59742  24102.000000  0   -1524174.212   -619175.157  -6695744.254
10 0 59742  24222.000000  0   -2386497.283   -414170.710  -6455315.459
10 0 59742  24342.000000  0   -3203685.492   -187292.925  -6102223.737
10 0 59742  24462.000000  0   -3961198.167     56611.912  -5642555.091
10 0 59742  24582.000000  0   -4645587.639    312151.556  -5084250.073
10 0 59742  24702.000000  0   -5244740.490    573499.509  -4436977.789
10 0 59742  24822.000000  0   -5748099.695    834519.781  -3711980.686
10 0 59742  24942.000000  0   -6146861.403   1088902.767  -2921888.208
10 0 59742  25062.000000  0   -6434141.210   1330308.489  -2080502.696
10 0 59742  25182.000000  0   -6605105.718   1552513.788  -1202560.704
10 0 59742  25302.000000  0   -6657066.452   1749561.278   -303473.019
10 0 59742  25422.000000  0   -6589530.402   1915904.117    600952.434
10 0 59742  25542.000000  0   -6404206.155   2046544.221   1494795.705
10 0 59742  25662.000000  0   -6104966.645   2137160.868   2362313.729
10 0 59742  25782.000000  0   -5697767.669   2184225.457   3188226.727
10 0 59742  25902.000000  0   -5190524.529   2185098.660   3957995.264
10 0 59742  26022.000000  0   -4592949.875   2138108.048   4658080.968
10 0 59742  26142.000000  0   -3916358.771   2042604.957   5276185.641
10 0 59742  26262.000000  0   -3173446.407   1898999.488   5801465.814
10 0 59742  26382.000000  0   -2378042.253   1708773.311   6224720.592
10 0 59742  26502.000000  0   -1544845.059   1474468.920   6538547.709
10 0 59742  26622.000000  0    -689146.399   1199656.038   6737466.034
10 0 59742  26742.000000  0     173451.163    888876.782   6818004.255
10 0 59742  26862.000000  0    1027317.690    547570.016   6778757.433
10 0 59742  26982.000000  0    1857077.777    181976.430   6620409.804
10 0 59742  27102.000000  0    2647886.091   -200974.688   6345724.179
10 0 59742  27222.000000  0    3385693.350   -593795.811   5959498.057
10 0 59742  27342.000000  0    4057498.611   -988585.794   5468484.759
10 0 59742  27462.000000  0    4651582.523  -1377187.404   4881281.138
10 0 59742  27582.000000  0    5157717.845  -1751354.319   4208183.210
10 0 59742  27702.000000  0    5567354.357  -2102923.968   3461010.382
10 0 59742  27822.000000  0    5873772.464  -2423993.964   2652899.371
10 0 59742  27942.000000  0    6072200.854  -2707097.111   1798072.011
10 0 59742  28062.000000  0    6159896.905  -2945370.280    911581.878
10 0 59742  28182.000000  0    6136187.274  -3132714.067      9042.224
10 0 59742  28302.000000  0    6002465.578  -3263937.854   -893657.163
10 0 59742  28422.000000  0    5762148.763  -3334887.070  -1780639.697
10 0 59742  28542.000000  0    5420590.939  -3342548.344  -2636329.227
10 0 59742  28662.000000  0    4984960.954  -3285131.450  -3445729.096
10 0 59742  28782.000000  0    4464085.013  -3162125.768  -4194687.849
10 0 59742  28902.000000  0    3868259.598  -2974330.804  -4870146.064
10 0 59742  29022.000000  0    3209038.664  -2723858.931  -5460359.476
10 0 59742  29142.000000  0    2499002.861  -2414112.020  -5955093.766
10 0 59742  29262.000000  0    1751516.793  -2049734.453  -6345791.737
10 0 59742  29382.000000  0     980476.112  -1636541.194  -6625712.129
10 0 59742  29502.000000  0     200049.819  -1181422.508  -6790034.852
10 0 59742  29622.000000  0    -575576.078   -692229.315  -6835934.525
10 0 59742  29742.000000  0   -1332450.327   -177640.088  -6762623.159
10 0 59742  29862.000000  0   -2057101.797    352989.612  -6571361.981
10 0 59742  29982.000000  0   -2736773.575    889792.743  -6265441.279
10 0 59742  30102.000000  0   -3359642.853   1422569.275  -5850130.200
10 0 59742  30222.000000  0   -3915025.431   1940975.349  -5332596.463
10 0 59742  30342.000000  0   -4393562.279   2434721.004  -4721794.521
10 0 59742  30462.000000  0   -4787382.796   2893773.434  -4028321.024
10 0 59742  30582.000000  0   -5090241.134   3308559.946  -3264240.570
10 0 59742  30702.000000  0   -5297624.368   3670168.375  -2442884.302
10 0 59742  30822.000000  0   -5406827.898   3970540.155  -1578621.185
10 0 59742  30942.000000  0   -5416996.628   4202650.217   -686607.039
10 0 59742  31062.000000  0   -5329129.595   4360669.478    217484.936
10 0 59742  31182.000000  0   -5146047.276   4440106.030   1117746.844
10 0 59742  31302.000000  0   -4872320.431   4437918.780   1998325.664
10 0 59742  31422.000000  0   -4514163.500   4352601.731   2843711.364
10 0 59742  31542.000000  0   -4079295.160   4184237.924   3639017.813
10 0 59742  31662.000000  0   -3576770.035   3934520.207   4370250.909
10 0 59742  31782.000000  0   -3016786.681   3606739.032   5024557.901
10 0 59742  31902.000000  0   -2410475.670   3205737.809   5590453.944
10 0 59742  32022.000000  0   -1769673.225   2737837.490   6058021.148
10 0 59742  32142.000000  0   -1106685.513   2210732.076   6419077.532
10 0 59742  32262.000000  0    -434049.723   1633357.290   6667312.448
10 0 59742  32382.000000  0     235702.382   1015736.701   6798390.908
10 0 59742  32502.000000  0     890277.857    368806.269   6810024.597
10 0 59742  32622.000000  0    1517847.068   -295778.742   6702008.936
10 0 59742  32742.000000  0    2107256.518   -965852.978   6476227.292
10 0 59742  32862.000000  0    2648226.801  -1628963.015   6136620.501
10 0 59742  32982.000000  0    3131533.663  -2272598.313   5689123.473
10 0 59742  33102.000000  0    3549168.360  -2884428.290   5141566.818
10 0 59742  33222.000000  0    3894474.299  -3452540.503   4503546.045
10 0 59742  33342.000000  0    4162257.833  -3965676.239   3786258.439
10 0 59742  33462.000000  0    4348870.454  -4413458.429   3002309.510
10 0 59742  33582.000000  0    4452260.619  -4786606.691   2165491.881
10 0 59742  33702.000000  0    4471993.445  -5077133.638   1290539.439
10 0 59742  33822.000000  0    4409236.816  -5278517.757    392862.174
10 0 59742  33942.000000  0    4266714.195  -5385847.737   -511732.557
10 0 59742  34062.000000  0    4048627.347  -5395936.153  -1407326.457
10 0 59742  34182.000000  0    3760547.869  -5307398.011  -2278179.958
10 0 59742  34302.000000  0    3409281.992  -5120692.107  -3109015.594
10 0 59742  34422.000000  0    3002712.588  -4838125.010  -3885290.929
10 0 59742  34542.000000  0    2549621.731  -4463818.600  -4593454.070
10 0 59742  34662.000000  0    2059499.165  -4003641.898  -5221177.634
10 0 59742  34782.000000  0    1542342.580  -3465109.155  -5757565.696
10 0 59742  34902.000000  0    1008454.166  -2857249.874  -6193332.708
10 0 59742  35022.000000  0     468236.424  -2190452.438  -6520953.924
10 0 59742  35142.000000  0     -68008.383  -1476283.127  -6734784.556
10 0 59742  35262.000000  0    -590270.402   -727284.924  -6831146.801
10 0 59742  35382.000000  0   -1089013.740     43240.073  -6808385.791
10 0 59742  35502.000000  0   -1555346.486    821461.466  -6666894.103
10 0 59742  35622.000000  0   -1981175.565   1593262.345  -6409105.517
10 0 59742  35742.000000  0   -2359344.004   2344488.958  -6039457.611
10 0 59742  35862.000000  0   -2683750.769   3061205.149  -5564324.631
99
